STARLINK-1434           
1 45712U 20035BH  26068.24137979  .00054112  00000+0  20295-2 0  9995
2 45712  53.0547  22.1128 0005343  88.0400 272.1210 15.26724568319325
STARLINK-35995          
1 66817U 25278AC  26068.51711302  .00031910  00000+0  11625-2 0  9994
2 66817  43.0049 115.2556 0001994 292.3368  67.7273 15.27624209 15186
